{"type":"FeatureCollection","features":[{"type":"Feature","properties":{"name":"Lewis and Clark Mainline","reason":"Route segment is closed to public bicycle access","routes":"TA, TA"},"geometry":{"type":"LineString","coordinates":[[-123.852776,46.08715],[-123.852801,46.087183],[-123.85288,46.087292],[-123.852994,46.087423],[-123.85315,46.087592],[-123.853803,46.088184],[-123.855242,46.08943],[-123.855851,46.090107],[-123.856733,46.090898],[-123.857021,46.091142],[-123.857225,46.091333],[-123.857392,46.09151]]}},{"type":"Feature","properties":{"name":"Lewis and Clark Mainline","reason":"Route segment is closed to public bicycle access","routes":"TA, TA"},"geometry":{"type":"Point","coordinates":[-123.855242,46.08943]}},{"type":"Feature","properties":{"name":"Closed route segment","reason":"Route segment is closed to public bicycle access","routes":"30HR"},"geometry":{"type":"LineString","coordinates":[[-122.074923,45.589616],[-122.074436,45.589671]]}},{"type":"Feature","properties":{"name":"Closed route segment","reason":"Route segment is closed to public bicycle access","routes":"30HR"},"geometry":{"type":"Point","coordinates":[-122.074436,45.589671]}},{"type":"Feature","properties":{"name":"Closed route segment","reason":"footway","routes":"WV"},"geometry":{"type":"LineString","coordinates":[[-123.032465,44.938473],[-123.032399,44.938612],[-123.032391,44.938675],[-123.032399,44.938715],[-123.032405,44.938798]]}},{"type":"Feature","properties":{"name":"Closed route segment","reason":"footway","routes":"WV"},"geometry":{"type":"Point","coordinates":[-123.032391,44.938675]}},{"type":"Feature","properties":{"name":"Crestview Street","reason":"Bicycles are not permitted","routes":""},"geometry":{"type":"LineString","coordinates":[[-122.46707,43.747271],[-122.467077,43.747763],[-122.467084,43.747982],[-122.467085,43.74799],[-122.467089,43.748061]]}},{"type":"Feature","properties":{"name":"Crestview Street","reason":"Bicycles are not permitted","routes":""},"geometry":{"type":"Point","coordinates":[-122.467084,43.747982]}},{"type":"Feature","properties":{"name":"Lewis and Clark Mainline","reason":"Route segment is closed to public bicycle access","routes":"TA, TA"},"geometry":{"type":"LineString","coordinates":[[-123.851633,46.082972],[-123.85179,46.083668],[-123.852138,46.084968],[-123.852295,46.085675],[-123.852592,46.086816]]}},{"type":"Feature","properties":{"name":"Lewis and Clark Mainline","reason":"Route segment is closed to public bicycle access","routes":"TA, TA"},"geometry":{"type":"Point","coordinates":[-123.852138,46.084968]}},{"type":"Feature","properties":{"name":"Lewis and Clark Mainline","reason":"Route segment is closed to public bicycle access","routes":"TA, TA"},"geometry":{"type":"LineString","coordinates":[[-123.857392,46.09151],[-123.857476,46.091612],[-123.857659,46.091903]]}},{"type":"Feature","properties":{"name":"Lewis and Clark Mainline","reason":"Route segment is closed to public bicycle access","routes":"TA, TA"},"geometry":{"type":"Point","coordinates":[-123.857476,46.091612]}},{"type":"Feature","properties":{"name":"Walk of Flags","reason":"footway","routes":"WV"},"geometry":{"type":"LineString","coordinates":[[-123.031627,44.938954],[-123.031687,44.938992],[-123.0317,44.939],[-123.031762,44.939033],[-123.031844,44.93906],[-123.031911,44.939078],[-123.031976,44.939095],[-123.032018,44.9391],[-123.03214,44.939115],[-123.032268,44.939112],[-123.032331,44.939099],[-123.032388,44.939081],[-123.032422,44.93906],[-123.032437,44.939045],[-123.032449,44.939029],[-123.032478,44.938986],[-123.032485,44.938931],[-123.032474,44.938888],[-123.032451,44.938848],[-123.032405,44.938798],[-123.032332,44.938755],[-123.032255,44.938719],[-123.032224,44.938709],[-123.032153,44.938685],[-123.032069,44.938662],[-123.032054,44.93866],[-123.03197,44.938647],[-123.031886,44.938637],[-123.031788,44.938639],[-123.031706,44.938656],[-123.031627,44.938681],[-123.031585,44.938716],[-123.031552,44.938761],[-123.031542,44.938808],[-123.031548,44.938858],[-123.031579,44.938912],[-123.031627,44.938954]]}},{"type":"Feature","properties":{"name":"Walk of Flags","reason":"footway","routes":"WV"},"geometry":{"type":"Point","coordinates":[-123.032451,44.938848]}},{"type":"Feature","properties":{"name":"McKenzie Highway","reason":"Route segment is closed to public bicycle access","routes":"TA, TA"},"geometry":{"type":"LineString","coordinates":[[-122.073732,44.184281],[-122.073555,44.18373]]}},{"type":"Feature","properties":{"name":"McKenzie Highway","reason":"Route segment is closed to public bicycle access","routes":"TA, TA"},"geometry":{"type":"Point","coordinates":[-122.073555,44.18373]}},{"type":"Feature","properties":{"name":"Closed route segment","reason":"footway","routes":"WV"},"geometry":{"type":"LineString","coordinates":[[-123.032002,44.939378],[-123.032086,44.939228],[-123.032124,44.939201],[-123.032175,44.939169],[-123.032242,44.939126],[-123.032268,44.939112]]}},{"type":"Feature","properties":{"name":"Closed route segment","reason":"footway","routes":"WV"},"geometry":{"type":"Point","coordinates":[-123.032175,44.939169]}},{"type":"Feature","properties":{"name":"Northwest Van Buren Avenue","reason":"Route segment is closed to public bicycle access","routes":"TA, TA"},"geometry":{"type":"LineString","coordinates":[[-123.257893,44.565833],[-123.257736,44.565828]]}},{"type":"Feature","properties":{"name":"Northwest Van Buren Avenue","reason":"Route segment is closed to public bicycle access","routes":"TA, TA"},"geometry":{"type":"Point","coordinates":[-123.257736,44.565828]}}]}