{"type":"FeatureCollection","features":[{"type":"Feature","properties":{"name":"Dike Road","reason":"Route segment is closed to public bicycle access","routes":"4002"},"geometry":{"type":"LineString","coordinates":[[-120.566159,46.978478],[-120.566215,46.978546],[-120.56626,46.978644],[-120.566934,46.980816],[-120.567132,46.981519],[-120.567333,46.982513],[-120.567642,46.98424],[-120.567727,46.984534],[-120.567772,46.984625],[-120.567897,46.98482],[-120.56838,46.98547],[-120.57017,46.987806],[-120.570278,46.987904],[-120.570349,46.987943],[-120.570613,46.988017],[-120.571074,46.988102],[-120.571218,46.988162],[-120.571271,46.988199],[-120.571336,46.988245],[-120.571461,46.988402],[-120.571756,46.98895]]}},{"type":"Feature","properties":{"name":"Dike Road","reason":"Route segment is closed to public bicycle access","routes":"4002"},"geometry":{"type":"Point","coordinates":[-120.56838,46.98547]}},{"type":"Feature","properties":{"name":"Cedar River Trail","reason":"cycleway","routes":"CRT"},"geometry":{"type":"LineString","coordinates":[[-122.202625,47.479754],[-122.202616,47.4798],[-122.202581,47.479872],[-122.202508,47.479928],[-122.202359,47.47999],[-122.202202,47.480054],[-122.20168,47.480273],[-122.201454,47.480341],[-122.201301,47.480365],[-122.201033,47.48038]]}},{"type":"Feature","properties":{"name":"Cedar River Trail","reason":"cycleway","routes":"CRT"},"geometry":{"type":"Point","coordinates":[-122.202202,47.480054]}},{"type":"Feature","properties":{"name":"Cedar River Trail","reason":"Bicycles are not permitted","routes":"1867"},"geometry":{"type":"LineString","coordinates":[[-122.21498,47.499973],[-122.214958,47.499998],[-122.214968,47.50002],[-122.215001,47.500047],[-122.215064,47.500058],[-122.215124,47.500037],[-122.215152,47.499988],[-122.215143,47.499906],[-122.21509,47.499784],[-122.21501,47.49959],[-122.214887,47.49934],[-122.214867,47.499281],[-122.214796,47.499068],[-122.214658,47.498674],[-122.214598,47.498538],[-122.214598,47.498523],[-122.214595,47.498424],[-122.214608,47.498301],[-122.214575,47.498201],[-122.214496,47.49813],[-122.214393,47.498083],[-122.214264,47.498014],[-122.214152,47.497898],[-122.214103,47.497772],[-122.213934,47.497334],[-122.213897,47.497183],[-122.213897,47.497004],[-122.213917,47.496807],[-122.213926,47.496774],[-122.213958,47.496661],[-122.213962,47.496634],[-122.213955,47.496543],[-122.21393,47.49649],[-122.213851,47.496365],[-122.213751,47.496183],[-122.21374,47.496133],[-122.213735,47.496067],[-122.213755,47.495893],[-122.213749,47.495805],[-122.213729,47.495754],[-122.213706,47.495699],[-122.213551,47.495538],[-122.213466,47.49526],[-122.213454,47.495237],[-122.213431,47.495218],[-122.213368,47.495187],[-122.213328,47.495167],[-122.213285,47.495147],[-122.213258,47.495125],[-122.213234,47.495103],[-122.213088,47.494917],[-122.213019,47.494784],[-122.212904,47.494482],[-122.212849,47.49436],[-122.21283,47.494282],[-122.212853,47.494182],[-122.212925,47.494074],[-122.212997,47.493996],[-122.213026,47.493912],[-122.213006,47.493796],[-122.212908,47.493583],[-122.212847,47.493341],[-122.212762,47.493131],[-122.212739,47.493092],[-122.212719,47.493056],[-122.212693,47.492933],[-122.21271,47.492787],[-122.212704,47.49268],[-122.212629,47.492445],[-122.212521,47.492143],[-122.212475,47.492044],[-122.212447,47.492018]]}},{"type":"Feature","properties":{"name":"Cedar River Trail","reason":"Bicycles are not permitted","routes":"1867"},"geometry":{"type":"Point","coordinates":[-122.213735,47.496067]}},{"type":"Feature","properties":{"name":"Gulf Road","reason":"Route segment is closed to public bicycle access","routes":"CMT, 197"},"geometry":{"type":"LineString","coordinates":[[-122.731747,48.870386],[-122.73175,48.875865],[-122.73178,48.877596]]}},{"type":"Feature","properties":{"name":"Gulf Road","reason":"Route segment is closed to public bicycle access","routes":"CMT, 197"},"geometry":{"type":"Point","coordinates":[-122.73175,48.875865]}},{"type":"Feature","properties":{"name":"Willapa Hills Trail","reason":"Bicycles are not permitted","routes":"WHT"},"geometry":{"type":"LineString","coordinates":[[-123.306053,46.559865],[-123.305182,46.560038]]}},{"type":"Feature","properties":{"name":"Willapa Hills Trail","reason":"Bicycles are not permitted","routes":"WHT"},"geometry":{"type":"Point","coordinates":[-123.305182,46.560038]}},{"type":"Feature","properties":{"name":"Palouse to Cascades State Park Trail","reason":"Route segment is closed to public bicycle access","routes":"PTCT"},"geometry":{"type":"LineString","coordinates":[[-117.517042,47.205144],[-117.518556,47.205376],[-117.519073,47.205425],[-117.519555,47.20544],[-117.520087,47.205436],[-117.520661,47.205407],[-117.52116,47.205345],[-117.521734,47.205259],[-117.522197,47.205163],[-117.523024,47.204931],[-117.523787,47.204659],[-117.524643,47.204253],[-117.525836,47.203382],[-117.526367,47.202995]]}},{"type":"Feature","properties":{"name":"Palouse to Cascades State Park Trail","reason":"Route segment is closed to public bicycle access","routes":"PTCT"},"geometry":{"type":"Point","coordinates":[-117.521734,47.205259]}},{"type":"Feature","properties":{"name":"Eastrail","reason":"Bicycles are not permitted","routes":"Lake Washington, 405"},"geometry":{"type":"LineString","coordinates":[[-122.195259,47.538432],[-122.195258,47.538322],[-122.195265,47.53821],[-122.195282,47.538069],[-122.195313,47.537878],[-122.19534,47.537753],[-122.19537,47.537642],[-122.195466,47.537381]]}},{"type":"Feature","properties":{"name":"Eastrail","reason":"Bicycles are not permitted","routes":"Lake Washington, 405"},"geometry":{"type":"Point","coordinates":[-122.195313,47.537878]}},{"type":"Feature","properties":{"name":"Palouse to Cascades State Park Trail","reason":"Route segment is closed to public bicycle access","routes":"PTCT, 40"},"geometry":{"type":"LineString","coordinates":[[-117.46822,47.231331],[-117.471756,47.231222],[-117.475787,47.231158],[-117.477627,47.231098],[-117.478338,47.231049],[-117.478886,47.230969],[-117.479499,47.230848],[-117.480041,47.230715],[-117.480623,47.230539],[-117.481125,47.230341],[-117.481484,47.230184],[-117.481904,47.22996],[-117.482257,47.229736],[-117.482677,47.229455],[-117.483078,47.229163],[-117.48455,47.227977]]}},{"type":"Feature","properties":{"name":"Palouse to Cascades State Park Trail","reason":"Route segment is closed to public bicycle access","routes":"PTCT, 40"},"geometry":{"type":"Point","coordinates":[-117.480623,47.230539]}},{"type":"Feature","properties":{"name":"Closed route segment","reason":"Bicycles are not permitted","routes":"FLT"},"geometry":{"type":"LineString","coordinates":[[-117.510055,47.53092],[-117.510159,47.530716],[-117.510406,47.530234],[-117.510854,47.529004],[-117.511149,47.528439],[-117.511669,47.527617],[-117.512128,47.526952],[-117.512887,47.5258],[-117.513617,47.524715],[-117.51403,47.524087],[-117.515293,47.522172]]}},{"type":"Feature","properties":{"name":"Closed route segment","reason":"Bicycles are not permitted","routes":"FLT"},"geometry":{"type":"Point","coordinates":[-117.511669,47.527617]}},{"type":"Feature","properties":{"name":"Closed route segment","reason":"Route segment is closed to public bicycle access","routes":""},"geometry":{"type":"LineString","coordinates":[[-122.196824,47.973158],[-122.196966,47.973132]]}},{"type":"Feature","properties":{"name":"Closed route segment","reason":"Route segment is closed to public bicycle access","routes":""},"geometry":{"type":"Point","coordinates":[-122.196966,47.973132]}},{"type":"Feature","properties":{"name":"Closed route segment","reason":"Route segment is closed to public bicycle access","routes":"10, 10"},"geometry":{"type":"LineString","coordinates":[[-122.67829,48.506474],[-122.678121,48.506662]]}},{"type":"Feature","properties":{"name":"Closed route segment","reason":"Route segment is closed to public bicycle access","routes":"10, 10"},"geometry":{"type":"Point","coordinates":[-122.678121,48.506662]}},{"type":"Feature","properties":{"name":"Closed route segment","reason":"Route segment is closed to public bicycle access","routes":""},"geometry":{"type":"LineString","coordinates":[[-122.196966,47.973132],[-122.19709,47.97311],[-122.197204,47.973089]]}},{"type":"Feature","properties":{"name":"Closed route segment","reason":"Route segment is closed to public bicycle access","routes":""},"geometry":{"type":"Point","coordinates":[-122.19709,47.97311]}},{"type":"Feature","properties":{"name":"Closed route segment","reason":"Bicycles are not permitted","routes":"FLT"},"geometry":{"type":"LineString","coordinates":[[-117.507816,47.534559],[-117.508553,47.53339],[-117.508791,47.533029]]}},{"type":"Feature","properties":{"name":"Closed route segment","reason":"Bicycles are not permitted","routes":"FLT"},"geometry":{"type":"Point","coordinates":[-117.508553,47.53339]}},{"type":"Feature","properties":{"name":"Closed route segment","reason":"Bicycles are not permitted","routes":"99 N"},"geometry":{"type":"LineString","coordinates":[[-122.757284,49.004738],[-122.757285,49.004773],[-122.757283,49.004867]]}},{"type":"Feature","properties":{"name":"Closed route segment","reason":"Bicycles are not permitted","routes":"99 N"},"geometry":{"type":"Point","coordinates":[-122.757285,49.004773]}},{"type":"Feature","properties":{"name":"Palouse to Cascades State Park Trail","reason":"Route segment is closed to public bicycle access","routes":"PTCT"},"geometry":{"type":"LineString","coordinates":[[-118.656711,46.972445],[-118.650626,46.971267],[-118.650014,46.971137],[-118.649476,46.971004],[-118.648802,46.970836],[-118.648287,46.970675],[-118.647814,46.970512],[-118.647498,46.970402]]}},{"type":"Feature","properties":{"name":"Palouse to Cascades State Park Trail","reason":"Route segment is closed to public bicycle access","routes":"PTCT"},"geometry":{"type":"Point","coordinates":[-118.648802,46.970836]}},{"type":"Feature","properties":{"name":"Palouse to Cascades State Park Trail","reason":"Route segment is closed to public bicycle access","routes":"PTCT"},"geometry":{"type":"LineString","coordinates":[[-118.647498,46.970402],[-118.647209,46.970246],[-118.646867,46.97012],[-118.646696,46.970075],[-118.646471,46.970009]]}},{"type":"Feature","properties":{"name":"Palouse to Cascades State Park Trail","reason":"Route segment is closed to public bicycle access","routes":"PTCT"},"geometry":{"type":"Point","coordinates":[-118.646867,46.97012]}},{"type":"Feature","properties":{"name":"Closed route segment","reason":"Bicycles are not permitted","routes":"FLT"},"geometry":{"type":"LineString","coordinates":[[-117.508791,47.533029],[-117.508825,47.532978],[-117.509293,47.532297]]}},{"type":"Feature","properties":{"name":"Closed route segment","reason":"Bicycles are not permitted","routes":"FLT"},"geometry":{"type":"Point","coordinates":[-117.508825,47.532978]}},{"type":"Feature","properties":{"name":"Closed route segment","reason":"Bicycles are not permitted","routes":"187"},"geometry":{"type":"LineString","coordinates":[[-122.265514,49.001599],[-122.265493,49.001575],[-122.265452,49.001529]]}},{"type":"Feature","properties":{"name":"Closed route segment","reason":"Bicycles are not permitted","routes":"187"},"geometry":{"type":"Point","coordinates":[-122.265493,49.001575]}},{"type":"Feature","properties":{"name":"Rockport Cascade Road","reason":"Road closed due to washout just west of bridge: https://www.skagitcounty.net/reporting/roadclose/","routes":"10, 10"},"geometry":{"type":"LineString","coordinates":[[-121.419683,48.5184],[-121.419384,48.518456]]}},{"type":"Feature","properties":{"name":"Rockport Cascade Road","reason":"Road closed due to washout just west of bridge: https://www.skagitcounty.net/reporting/roadclose/","routes":"10, 10"},"geometry":{"type":"Point","coordinates":[-121.419384,48.518456]}},{"type":"Feature","properties":{"name":"Closed route segment","reason":"Bicycles are not permitted","routes":"40"},"geometry":{"type":"LineString","coordinates":[[-122.337821,47.602117],[-122.337822,47.602079],[-122.337824,47.602037],[-122.337825,47.602012],[-122.337825,47.602001],[-122.337826,47.601986],[-122.337826,47.601968],[-122.337827,47.601937],[-122.337828,47.601913]]}},{"type":"Feature","properties":{"name":"Closed route segment","reason":"Bicycles are not permitted","routes":"40"},"geometry":{"type":"Point","coordinates":[-122.337825,47.602001]}},{"type":"Feature","properties":{"name":"Palouse to Cascades State Park Trail","reason":"Route segment is closed to public bicycle access","routes":"PTCT"},"geometry":{"type":"LineString","coordinates":[[-117.48455,47.227977],[-117.484693,47.22786],[-117.485478,47.227222],[-117.486365,47.226502],[-117.487555,47.225529],[-117.488494,47.224758],[-117.489292,47.224099],[-117.489835,47.223543],[-117.490505,47.222668]]}},{"type":"Feature","properties":{"name":"Palouse to Cascades State Park Trail","reason":"Route segment is closed to public bicycle access","routes":"PTCT"},"geometry":{"type":"Point","coordinates":[-117.487555,47.225529]}},{"type":"Feature","properties":{"name":"Dike Road","reason":"Route segment is closed to public bicycle access","routes":"4002"},"geometry":{"type":"LineString","coordinates":[[-120.571756,46.98895],[-120.572421,46.98948]]}},{"type":"Feature","properties":{"name":"Dike Road","reason":"Route segment is closed to public bicycle access","routes":"4002"},"geometry":{"type":"Point","coordinates":[-120.572421,46.98948]}},{"type":"Feature","properties":{"name":"Closed route segment","reason":"Bicycles are not permitted","routes":"PTCT"},"geometry":{"type":"LineString","coordinates":[[-121.680994,47.442027],[-121.680765,47.441825],[-121.680485,47.441781],[-121.680109,47.441829],[-121.679912,47.442011]]}},{"type":"Feature","properties":{"name":"Closed route segment","reason":"Bicycles are not permitted","routes":"PTCT"},"geometry":{"type":"Point","coordinates":[-121.680485,47.441781]}},{"type":"Feature","properties":{"name":"Old Samish Road","reason":"Road under construction","routes":"97, 87, 95, 97, 95, 87"},"geometry":{"type":"LineString","coordinates":[[-122.408161,48.689855],[-122.408939,48.689894],[-122.409575,48.689876],[-122.409771,48.68987],[-122.410677,48.689827]]}},{"type":"Feature","properties":{"name":"Old Samish Road","reason":"Road under construction","routes":"97, 87, 95, 97, 95, 87"},"geometry":{"type":"Point","coordinates":[-122.409575,48.689876]}}]}