{"type":"FeatureCollection","features":[{"type":"Feature","properties":{"name":"The Crooked Mile","reason":"Bicycles are not permitted","routes":"TPB"},"geometry":{"type":"LineString","coordinates":[[-119.83362,39.523068],[-119.833671,39.523081],[-119.833773,39.523082],[-119.833881,39.523065],[-119.834053,39.52302],[-119.834321,39.522942],[-119.834414,39.522902],[-119.83448,39.52286],[-119.834522,39.522834],[-119.834572,39.52282],[-119.834663,39.522801],[-119.834701,39.522783],[-119.834765,39.522731],[-119.834799,39.522709],[-119.834851,39.522689],[-119.834931,39.522658],[-119.835006,39.522621],[-119.835072,39.522579],[-119.83512,39.522558],[-119.835261,39.5225],[-119.835388,39.522444],[-119.835428,39.522419],[-119.835466,39.522378],[-119.835485,39.522363],[-119.835551,39.522312],[-119.835637,39.522244],[-119.83571,39.522182],[-119.835785,39.522114],[-119.835855,39.52204],[-119.835934,39.521967],[-119.836019,39.521874],[-119.836076,39.521828],[-119.83614,39.521791],[-119.836237,39.521737],[-119.836304,39.521691],[-119.836347,39.52164],[-119.836407,39.521591],[-119.836482,39.521519],[-119.836548,39.521454],[-119.836619,39.521378],[-119.836706,39.521279],[-119.836763,39.521195],[-119.836838,39.521076],[-119.836882,39.520997],[-119.836918,39.520953],[-119.836943,39.520942],[-119.837263,39.520809],[-119.837563,39.520519],[-119.837767,39.52035],[-119.837911,39.520236],[-119.838121,39.520099],[-119.838216,39.519967],[-119.838489,39.519762],[-119.838587,39.519718],[-119.838605,39.519687],[-119.838695,39.519646],[-119.838789,39.519553],[-119.838849,39.519455],[-119.838914,39.519367],[-119.838965,39.519281],[-119.83903,39.519168]]}},{"type":"Feature","properties":{"name":"The Crooked Mile","reason":"Bicycles are not permitted","routes":"TPB"},"geometry":{"type":"Point","coordinates":[-119.836019,39.521874]}},{"type":"Feature","properties":{"name":"Closed route segment","reason":"Bicycles are not permitted","routes":"TPB"},"geometry":{"type":"LineString","coordinates":[[-119.836817,39.519798],[-119.836896,39.519789],[-119.836932,39.51975],[-119.837779,39.519729],[-119.837999,39.51971],[-119.838587,39.519718]]}},{"type":"Feature","properties":{"name":"Closed route segment","reason":"Bicycles are not permitted","routes":"TPB"},"geometry":{"type":"Point","coordinates":[-119.837779,39.519729]}}]}